OBJECT_NAME,OBJECT_ID,EPOCH,MEAN_MOTION,ECCENTRICITY,INCLINATION,RA_OF_ASC_NODE,ARG_OF_PERICENTER,MEAN_ANOMALY,EPHEMERIS_TYPE,CLASSIFICATION_TYPE,NORAD_CAT_ID,ELEMENT_SET_NO,REV_AT_EPOCH,BSTAR,MEAN_MOTION_DOT,MEAN_MOTION_DDOT
ONEWEB-0336,2021-083S,2026-07-22T07:12:31.285440,13.13469120,.00017707,87.8977,313.2403,93.2771,266.8561,0,U,49202,999,23552,.7749547E-3,.296E-5,0
ONEWEB-0337,2021-083T,2026-07-22T07:26:57.615648,13.13468826,.0001969,87.8980,313.2437,92.1647,267.9707,0,U,49203,999,23552,.36797934E-3,.147E-5,0
ONEWEB-0338,2021-083U,2026-07-22T04:36:50.985792,13.20771086,.00021901,87.9175,267.4709,105.4506,254.6869,0,U,49204,999,24143,.57972218E-4,.37E-6,0
ONEWEB-0339,2021-083V,2026-07-21T07:53:17.158848,13.13469145,.00021849,87.8982,313.4323,104.2623,255.8748,0,U,49205,999,23537,-.43776635E-3,-.147E-5,0
ONEWEB-0340,2021-083W,2026-07-21T08:29:30.107616,13.18685446,.00018291,87.9205,328.6635,95.0146,265.1195,0,U,49206,999,23447,.14763742E-3,.71E-6,0
ONEWEB-0341,2021-083X,2026-07-21T08:39:12.401280,13.18684929,.00021969,87.9197,328.6631,88.2932,271.8452,0,U,49207,999,23449,.21066876E-3,.96E-6,0
ONEWEB-0342,2021-083Y,2026-07-22T04:46:31.537632,13.20771681,.00020834,87.9179,267.4601,99.2883,260.8486,0,U,49208,999,24140,-.68102905E-3,-.264E-5,0
ONEWEB-0343,2021-083Z,2026-07-21T08:51:20.837088,13.18686452,.00022784,87.9197,328.6601,103.5535,256.5851,0,U,49209,999,23454,-.24404432E-3,-.83E-6,0
ONEWEB-0344,2021-083AA,2026-07-21T16:54:26.325504,13.13468467,.00021636,87.8980,313.3703,89.5112,270.6266,0,U,49210,999,23542,-.94204682E-4,-.22E-6,0
ONEWEB-0345,2021-083AB,2026-07-21T13:02:52.280160,13.13469943,.00021707,87.8989,313.3879,93.1323,267.0054,0,U,49211,999,23541,.63205256E-3,.244E-5,0
ONEWEB-0346,2021-083AC,2026-07-21T08:46:29.469504,13.18686072,.0001366,87.9194,328.6597,84.8522,275.2766,0,U,49212,999,23448,-.21602834E-3,-.72E-6,0
ONEWEB-0348,2021-083AD,2026-07-22T04:32:00.070944,13.20772973,.00019179,87.9178,267.4661,82.9149,277.2202,0,U,49213,999,24143,.11224288E-3,.59E-6,0
ONEWEB-0350,2021-083AE,2026-07-22T00:28:02.215776,13.13469492,.00019339,87.8983,313.2975,131.5572,228.5723,0,U,49214,999,23550,-.12534864E-2,-.445E-5,0
ONEWEB-0351,2021-083AF,2026-07-22T04:22:06.768192,13.20771173,.0002677,87.9181,267.4667,98.5201,261.6236,0,U,49215,999,24139,.47163952E-4,.32E-6,0
ONEWEB-0352,2021-083AG,2026-07-21T18:17:20.341536,13.13469719,.00023308,87.8980,313.3531,104.5302,255.6086,0,U,49216,999,23556,.75705495E-3,.289E-5,0
ONEWEB-0354,2021-083AH,2026-07-22T03:12:00.516384,13.20771584,.00021768,87.9186,267.4765,101.6718,258.4660,0,U,49217,999,24142,-.10096601E-4,.9E-7,0
ONEWEB-0355,2021-083AJ,2026-07-22T07:47:50.084736,13.13468021,.00021572,87.8980,313.2415,98.2703,261.8671,0,U,49218,999,23551,-.51057859E-3,-.174E-5,0
ONEWEB-0357,2021-083AK,2026-07-22T03:07:09.647328,13.20777997,.00025498,87.9179,267.4695,96.8158,263.3266,0,U,49219,999,24142,.35486913E-2,.1456E-4,0
ONEWEB-0332,2021-090A,2026-07-22T03:45:38.560320,13.14502997,.00020829,87.8962,282.7416,105.3395,254.7965,0,U,49279,999,23217,-.18191455E-3,-.55E-6,0
ONEWEB-0347,2021-090B,2026-07-22T04:41:42.193536,13.20770747,.00021429,87.9168,267.4631,107.3285,252.8082,0,U,49280,999,23566,.11816084E-4,.18E-6,0
ONEWEB-0349,2021-090C,2026-07-22T03:38:39.892704,13.20770890,.00020535,87.9172,267.4737,97.3939,262.7428,0,U,49281,999,23444,.12763328E-3,.65E-6,0
ONEWEB-0353,2021-090D,2026-07-22T03:34:14.128896,13.14502400,.00020417,87.8964,282.7394,106.3739,253.7615,0,U,49282,999,23217,.16129376E-3,.73E-6,0
ONEWEB-0356,2021-090E,2026-07-22T03:36:14.944608,13.20771293,.00012642,87.9174,267.4676,103.8572,256.2702,0,U,49283,999,23444,-.77429283E-4,-.19E-6,0
ONEWEB-0358,2021-090F,2026-07-22T04:28:21.173088,13.20770187,.00019227,87.9181,267.4679,95.9863,264.1489,0,U,49284,999,23517,.763358E-5,.16E-6,0
ONEWEB-0359,2021-090G,2026-07-22T04:15:01.781280,13.20770925,.0001996,87.9180,267.4620,90.1832,269.9530,0,U,49285,999,23515,.15151859E-3,.75E-6,0
ONEWEB-0360,2021-090H,2026-07-22T04:00:30.242880,13.20771917,.00021735,87.9174,267.4699,97.7285,262.4095,0,U,49286,999,23446,-.83110395E-4,-.21E-6,0
ONEWEB-0361,2021-090J,2026-07-22T03:33:48.703104,13.20770000,.00019615,87.9176,267.4727,95.0727,265.0630,0,U,49287,999,23491,.84089227E-4,.47E-6,0
ONEWEB-0362,2021-090K,2026-07-21T07:04:28.022592,13.19724979,.00022522,87.9181,298.1865,99.2347,260.9040,0,U,49288,999,23141,-.42677403E-3,-.158E-5,0
ONEWEB-0363,2021-090L,2026-07-22T03:55:38.142624,13.20772505,.00017142,87.9178,267.4695,96.4822,263.6506,0,U,49289,999,23492,-.98607413E-4,-.27E-6,0
ONEWEB-0364,2021-090M,2026-07-22T03:02:18.494880,13.20770869,.00021043,87.9174,267.4847,97.8787,262.2585,0,U,49290,999,23605,.7940524E-4,.45E-6,0
