ONEWEB-0336             
1 49202U 21083S   26203.30036210  .00000296  00000+0  77495-3 0  9990
2 49202  87.8977 313.2403 0001770  93.2771 266.8561 13.13469120235526
ONEWEB-0337             
1 49203U 21083T   26203.31038907  .00000147  00000+0  36798-3 0  9993
2 49203  87.8980 313.2437 0001969  92.1647 267.9707 13.13468826235524
ONEWEB-0338             
1 49204U 21083U   26203.19225678  .00000037  00000+0  57972-4 0  9999
2 49204  87.9175 267.4709 0002190 105.4506 254.6869 13.20771086241435
ONEWEB-0339             
1 49205U 21083V   26202.32867082 -.00000147  00000+0 -43777-3 0  9996
2 49205  87.8982 313.4323 0002184 104.2623 255.8748 13.13469145235372
ONEWEB-0340             
1 49206U 21083W   26202.35382069  .00000071  00000+0  14764-3 0  9995
2 49206  87.9205 328.6635 0001829  95.0146 265.1195 13.18685446234477
ONEWEB-0341             
1 49207U 21083X   26202.36056020  .00000096  00000+0  21067-3 0  9993
2 49207  87.9197 328.6631 0002196  88.2932 271.8452 13.18684929234496
ONEWEB-0342             
1 49208U 21083Y   26203.19897613 -.00000264  00000+0 -68103-3 0  9998
2 49208  87.9179 267.4601 0002083  99.2883 260.8486 13.20771681241405
ONEWEB-0343             
1 49209U 21083Z   26202.36899117 -.00000083  00000+0 -24404-3 0  9993
2 49209  87.9197 328.6601 0002278 103.5535 256.5851 13.18686452234548
ONEWEB-0344             
1 49210U 21083AA  26202.70447136 -.00000022  00000+0 -94205-4 0  9993
2 49210  87.8980 313.3703 0002163  89.5112 270.6266 13.13468467235424
ONEWEB-0345             
1 49211U 21083AB  26202.54366065  .00000244  00000+0  63205-3 0  9996
2 49211  87.8989 313.3879 0002170  93.1323 267.0054 13.13469943235415
ONEWEB-0346             
1 49212U 21083AC  26202.36561886 -.00000072  00000+0 -21603-3 0  9992
2 49212  87.9194 328.6597 0001366  84.8522 275.2766 13.18686072234481
ONEWEB-0348             
1 49213U 21083AD  26203.18888971  .00000059  00000+0  11224-3 0  9992
2 49213  87.9178 267.4661 0001917  82.9149 277.2202 13.20772973241431
ONEWEB-0350             
1 49214U 21083AE  26203.01947009 -.00000445  00000+0 -12535-2 0  9999
2 49214  87.8983 313.2975 0001933 131.5572 228.5723 13.13469492235501
ONEWEB-0351             
1 49215U 21083AF  26203.18202278  .00000032  00000+0  47164-4 0  9998
2 49215  87.9181 267.4667 0002677  98.5201 261.6236 13.20771173241399
ONEWEB-0352             
1 49216U 21083AG  26202.76204099  .00000289  00000+0  75705-3 0  9990
2 49216  87.8980 313.3531 0002330 104.5302 255.6086 13.13469719235563
ONEWEB-0354             
1 49217U 21083AH  26203.13333931  .00000009  00000+0 -10097-4 0  9996
2 49217  87.9186 267.4765 0002176 101.6718 258.4660 13.20771584241423
ONEWEB-0355             
1 49218U 21083AJ  26203.32488524 -.00000174  00000+0 -51058-3 0  9992
2 49218  87.8980 313.2415 0002157  98.2703 261.8671 13.13468021235515
ONEWEB-0357             
1 49219U 21083AK  26203.12997277  .00001456  00000+0  35487-2 0  9990
2 49219  87.9179 267.4695 0002549  96.8158 263.3266 13.20777997241427
ONEWEB-0332             
1 49279U 21090A   26203.15669630 -.00000055  00000+0 -18191-3 0  9996
2 49279  87.8962 282.7416 0002082 105.3395 254.7965 13.14502997232175
ONEWEB-0347             
1 49280U 21090B   26203.19562724  .00000018  00000+0  11816-4 0  9993
2 49280  87.9168 267.4631 0002142 107.3285 252.8082 13.20770747235665
ONEWEB-0349             
1 49281U 21090C   26203.15185061  .00000065  00000+0  12763-3 0  9998
2 49281  87.9172 267.4737 0002053  97.3939 262.7428 13.20770890234441
ONEWEB-0353             
1 49282U 21090D   26203.14877464  .00000073  00000+0  16129-3 0  9992
2 49282  87.8964 282.7394 0002041 106.3739 253.7615 13.14502400232174
ONEWEB-0356             
1 49283U 21090E   26203.15017297 -.00000019  00000+0 -77429-4 0  9997
2 49283  87.9174 267.4676 0001264 103.8572 256.2702 13.20771293234447
ONEWEB-0358             
1 49284U 21090F   26203.18635617  .00000016  00000+0  76336-5 0  9995
2 49284  87.9181 267.4679 0001922  95.9863 264.1489 13.20770187235176
ONEWEB-0359             
1 49285U 21090G   26203.17710395  .00000075  00000+0  15152-3 0  9994
2 49285  87.9180 267.4620 0001996  90.1832 269.9530 13.20770925235154
ONEWEB-0360             
1 49286U 21090H   26203.16701670 -.00000021  00000+0 -83110-4 0  9993
2 49286  87.9174 267.4699 0002173  97.7285 262.4095 13.20771917234466
ONEWEB-0361             
1 49287U 21090J   26203.14848036  .00000047  00000+0  84089-4 0  9992
2 49287  87.9176 267.4727 0001961  95.0727 265.0630 13.20770000234913
ONEWEB-0362             
1 49288U 21090K   26202.29476878 -.00000158  00000+0 -42677-3 0  9990
2 49288  87.9181 298.1865 0002252  99.2347 260.9040 13.19724979231415
ONEWEB-0363             
1 49289U 21090L   26203.16363591 -.00000027  00000+0 -98607-4 0  9995
2 49289  87.9178 267.4695 0001714  96.4822 263.6506 13.20772505234927
ONEWEB-0364             
1 49290U 21090M   26203.12660295  .00000045  00000+0  79405-4 0  9997
2 49290  87.9174 267.4847 0002104  97.8787 262.2585 13.20770869236052
